[{"OBJECT_NAME":"STARLINK-5100","OBJECT_ID":"2023-015AY","EPOCH":"2026-03-09T01:24:26.349120","MEAN_MOTION":15.02646487,"ECCENTRICITY":0.00020274,"INCLINATION":43.0053,"RA_OF_ASC_NODE":316.8774,"ARG_OF_PERICENTER":283.8127,"MEAN_ANOMALY":76.249,"EPHEMERIS_TYPE":0,"CLASSIFICATION_TYPE":"U","NORAD_CAT_ID":55495,"ELEMENT_SET_NO":999,"REV_AT_EPOCH":17080,"BSTAR":-0.0018406992,"MEAN_MOTION_DOT":-0.00025054,"MEAN_MOTION_DDOT":0},{"OBJECT_NAME":"FENGYUN 1C DEB","OBJECT_ID":"1999-025BQF","EPOCH":"2026-03-08T19:58:36.101856","MEAN_MOTION":15.15826086,"ECCENTRICITY":0.00798835,"INCLINATION":98.9812,"RA_OF_ASC_NODE":89.4872,"ARG_OF_PERICENTER":83.7388,"MEAN_ANOMALY":277.2932,"EPHEMERIS_TYPE":0,"CLASSIFICATION_TYPE":"U","NORAD_CAT_ID":31327,"ELEMENT_SET_NO":999,"REV_AT_EPOCH":1401,"BSTAR":0.0018254058,"MEAN_MOTION_DOT":0.00037915,"MEAN_MOTION_DDOT":0}]
